start=new Date('2022-09-04T00:00:00.000Z').valueOf();
sats=[{"REV_AT_EPOCH":"7468","ELEMENT_SET_NO":"999","INCLINATION":"53.0544","NORAD_CAT_ID":"48334","EPHEMERIS_TYPE":"0","TLE_LINE2":"2 48334  53.0544 100.5035 0001339  95.6678 264.4464 15.06407110 74686","GP_ID":"211670800","COUNTRY_CODE":"US","ECCENTRICITY":"0.00013390","REF_FRAME":"TEME","BSTAR":"0.00027674000000","FILE":"3556957","MEAN_ANOMALY":"264.4464","MEAN_ELEMENT_THEORY":"SGP4","TIME_SYSTEM":"UTC","RA_OF_ASC_NODE":"100.5035","PERIAPSIS":"546.264","OBJECT_ID":"2021-036BL","OBJECT_NAME":"STARLINK-2470","CLASSIFICATION_TYPE":"U","APOAPSIS":"548.119","LAUNCH_DATE":"2021-04-29","MEAN_MOTION":"15.06407110","PERIOD":"95.592","MEAN_MOTION_DDOT":"0.0000000000000","SITE":"AFETR","DECAY_DATE":null,"OBJECT_TYPE":"PAYLOAD","RCS_SIZE":"LARGE","TLE_LINE1":"1 48334U 21036BL  22246.84925701  .00003844  00000-0  27674-3 0  9994","MEAN_MOTION_DOT":"0.00003844","SEMIMAJOR_AXIS":"6925.327","ARG_OF_PERICENTER":"95.6678","CENTER_NAME":"EARTH","EPOCH":"2022-09-03T20:22:55.805664"},{"RCS_SIZE":"LARGE","TLE_LINE1":"1 48335U 21036BM  22246.84556905  .00000873  00000-0  77510-4 0  9995","OBJECT_TYPE":"PAYLOAD","SITE":"AFETR","DECAY_DATE":null,"MEAN_MOTION_DDOT":"0.0000000000000","EPOCH":"2022-09-03T20:17:37.165920","CENTER_NAME":"EARTH","ARG_OF_PERICENTER":"89.5626","SEMIMAJOR_AXIS":"6925.346","MEAN_MOTION_DOT":"0.00000873","MEAN_MOTION":"15.06400965","LAUNCH_DATE":"2021-04-29","APOAPSIS":"548.235","CLASSIFICATION_TYPE":"U","OBJECT_ID":"2021-036BM","OBJECT_NAME":"STARLINK-2441","PERIAPSIS":"546.186","RA_OF_ASC_NODE":"100.5395","PERIOD":"95.592","ECCENTRICITY":"0.00014790","COUNTRY_CODE":"US","GP_ID":"211646202","TLE_LINE2":"2 48335  53.0536 100.5395 0001479  89.5626 270.5532 15.06400965 75278","TIME_SYSTEM":"UTC","MEAN_ANOMALY":"270.5532","MEAN_ELEMENT_THEORY":"SGP4","FILE":"3556834","BSTAR":"0.00007751000000","REF_FRAME":"TEME","ELEMENT_SET_NO":"999","INCLINATION":"53.0536","REV_AT_EPOCH":"7527","EPHEMERIS_TYPE":"0","NORAD_CAT_ID":"48335"},{"TLE_LINE2":"2 48353  53.0559   1.4077 0001471  81.6717 278.4438 15.06408084 73646","COUNTRY_CODE":"US","GP_ID":"211670308","ECCENTRICITY":"0.00014710","REF_FRAME":"TEME","FILE":"3556957","BSTAR":"0.00013056000000","TIME_SYSTEM":"UTC","MEAN_ELEMENT_THEORY":"SGP4","MEAN_ANOMALY":"278.4438","REV_AT_EPOCH":"7364","ELEMENT_SET_NO":"999","INCLINATION":"53.0559","NORAD_CAT_ID":"48353","EPHEMERIS_TYPE":"0","MEAN_MOTION_DDOT":"0.0000000000000","OBJECT_TYPE":"PAYLOAD","DECAY_DATE":null,"SITE":"AFETR","TLE_LINE1":"1 48353U 21038A   22246.65204465  .00001664  00000-0  13056-3 0  9990","RCS_SIZE":"LARGE","SEMIMAJOR_AXIS":"6925.324","MEAN_MOTION_DOT":"0.00001664","ARG_OF_PERICENTER":"81.6717","CENTER_NAME":"EARTH","EPOCH":"2022-09-03T15:38:56.657760","RA_OF_ASC_NODE":"1.4077","PERIAPSIS":"546.170","CLASSIFICATION_TYPE":"U","APOAPSIS":"548.207","OBJECT_NAME":"STARLINK-2613","OBJECT_ID":"2021-038A","MEAN_MOTION":"15.06408084","LAUNCH_DATE":"2021-05-04","PERIOD":"95.592"},{"MEAN_ANOMALY":"261.5079","MEAN_ELEMENT_THEORY":"SGP4","TIME_SYSTEM":"UTC","BSTAR":"0.00004566500000","FILE":"3556957","REF_FRAME":"TEME","ECCENTRICITY":"0.00013170","GP_ID":"211670559","COUNTRY_CODE":"US","TLE_LINE2":"2 48354  53.0547   1.1318 0001317  98.6059 261.5079 15.06402175 73655","EPHEMERIS_TYPE":"0","NORAD_CAT_ID":"48354","ELEMENT_SET_NO":"999","INCLINATION":"53.0547","REV_AT_EPOCH":"7365","EPOCH":"2022-09-03T17:09:11.401920","CENTER_NAME":"EARTH","ARG_OF_PERICENTER":"98.6059","MEAN_MOTION_DOT":"0.00000399","SEMIMAJOR_AXIS":"6925.342","RCS_SIZE":"LARGE","TLE_LINE1":"1 48354U 21038B   22246.71471530  .00000399  00000-0  45665-4 0  9993","SITE":"AFETR","DECAY_DATE":null,"OBJECT_TYPE":"PAYLOAD","MEAN_MOTION_DDOT":"0.0000000000000","PERIOD":"95.592","LAUNCH_DATE":"2021-05-04","MEAN_MOTION":"15.06402175","OBJECT_NAME":"STARLINK-2674","OBJECT_ID":"2021-038B","CLASSIFICATION_TYPE":"U","APOAPSIS":"548.119","RA_OF_ASC_NODE":"1.1318","PERIAPSIS":"546.295"},{"PERIOD":"95.592","RA_OF_ASC_NODE":"1.4374","PERIAPSIS":"546.310","OBJECT_ID":"2021-038C","OBJECT_NAME":"STARLINK-2635","APOAPSIS":"548.112","CLASSIFICATION_TYPE":"U","LAUNCH_DATE":"2021-05-04","MEAN_MOTION":"15.06400866","MEAN_MOTION_DOT":"0.00000656","SEMIMAJOR_AXIS":"6925.346","ARG_OF_PERICENTER":"80.9325","CENTER_NAME":"EARTH","EPOCH":"2022-09-03T15:28:20.841888","MEAN_MOTION_DDOT":"0.0000000000000","DECAY_DATE":null,"SITE":"AFETR","OBJECT_TYPE":"PAYLOAD","RCS_SIZE":"LARGE","TLE_LINE1":"1 48355U 21038C   22246.64468567  .00000656  00000-0  62935-4 0  9997","NORAD_CAT_ID":"48355","EPHEMERIS_TYPE":"0","REV_AT_EPOCH":"7364","ELEMENT_SET_NO":"999","INCLINATION":"53.0566","REF_FRAME":"TEME","BSTAR":"0.00006293500000","FILE":"3556957","MEAN_ANOMALY":"279.1811","MEAN_ELEMENT_THEORY":"SGP4","TIME_SYSTEM":"UTC","TLE_LINE2":"2 48355  53.0566   1.4374 0001301  80.9325 279.1811 15.06400866 73648","GP_ID":"211670802","COUNTRY_CODE":"US","ECCENTRICITY":"0.00013010"},{"PERIOD":"95.592","RA_OF_ASC_NODE":"1.4408","PERIAPSIS":"546.328","LAUNCH_DATE":"2021-05-04","MEAN_MOTION":"15.06408514","OBJECT_NAME":"STARLINK-2637","OBJECT_ID":"2021-038D","APOAPSIS":"548.047","CLASSIFICATION_TYPE":"U","ARG_OF_PERICENTER":"88.5111","MEAN_MOTION_DOT":"0.00004544","SEMIMAJOR_AXIS":"6925.322","EPOCH":"2022-09-03T15:23:01.520448","CENTER_NAME":"EARTH","DECAY_DATE":null,"SITE":"AFETR","OBJECT_TYPE":"PAYLOAD","MEAN_MOTION_DDOT":"0.0000000000000","RCS_SIZE":"LARGE","TLE_LINE1":"1 48356U 21038D   22246.64098982  .00004544  00000-0  32368-3 0  9994","NORAD_CAT_ID":"48356","EPHEMERIS_TYPE":"0","REV_AT_EPOCH":"7364","ELEMENT_SET_NO":"999","INCLINATION":"53.0545","REF_FRAME":"TEME","MEAN_ANOMALY":"271.6021","MEAN_ELEMENT_THEORY":"SGP4","TIME_SYSTEM":"UTC","BSTAR":"0.00032368000000","FILE":"3556957","GP_ID":"211669558","COUNTRY_CODE":"US","TLE_LINE2":"2 48356  53.0545   1.4408 0001241  88.5111 271.6021 15.06408514 73642","ECCENTRICITY":"0.00012410"},{"REV_AT_EPOCH":"7364","ELEMENT_SET_NO":"999","INCLINATION":"53.0564","NORAD_CAT_ID":"48357","EPHEMERIS_TYPE":"0","COUNTRY_CODE":"US","GP_ID":"211669808","TLE_LINE2":"2 48357  53.0564   1.4894 0001262  89.1854 270.9280 15.06397779 73646","ECCENTRICITY":"0.00012620","REF_FRAME":"TEME","TIME_SYSTEM":"UTC","MEAN_ELEMENT_THEORY":"SGP4","MEAN_ANOMALY":"270.9280","FILE":"3556957","BSTAR":"0.00015241000000","RA_OF_ASC_NODE":"1.4894","PERIAPSIS":"546.346","MEAN_MOTION":"15.06397779","LAUNCH_DATE":"2021-05-04","CLASSIFICATION_TYPE":"U","APOAPSIS":"548.094","OBJECT_NAME":"STARLINK-2636","OBJECT_ID":"2021-038E","PERIOD":"95.592","OBJECT_TYPE":"PAYLOAD","DECAY_DATE":null,"SITE":"AFETR","MEAN_MOTION_DDOT":"0.0000000000000","RCS_SIZE":"LARGE","TLE_LINE1":"1 48357U 21038E   22246.64005577  .00001989  00000-0  15241-3 0  9994","ARG_OF_PERICENTER":"89.1854","SEMIMAJOR_AXIS":"6925.355","MEAN_MOTION_DOT":"0.00001989","EPOCH":"2022-09-03T15:21:40.818528","CENTER_NAME":"EARTH"},{"TLE_LINE1":"1 48358U 21038F   22246.76631766  .00002239  00000-0  16909-3 0  9994","RCS_SIZE":"LARGE","MEAN_MOTION_DDOT":"0.0000000000000","SITE":"AFETR","DECAY_DATE":null,"OBJECT_TYPE":"PAYLOAD","CENTER_NAME":"EARTH","EPOCH":"2022-09-03T18:23:29.845824","MEAN_MOTION_DOT":"0.00002239","SEMIMAJOR_AXIS":"6925.329","ARG_OF_PERICENTER":"69.2681","OBJECT_ID":"2021-038F","OBJECT_NAME":"STARLINK-2624","APOAPSIS":"548.018","CLASSIFICATION_TYPE":"U","LAUNCH_DATE":"2021-05-04","MEAN_MOTION":"15.06406516","RA_OF_ASC_NODE":"0.8856","PERIAPSIS":"546.369","PERIOD":"95.592","ECCENTRICITY":"0.00011900","TLE_LINE2":"2 48358  53.0570   0.8856 0001190  69.2681 290.8436 15.06406516 73657","GP_ID":"211671060","COUNTRY_CODE":"US","BSTAR":"0.00016909000000","FILE":"3556957","MEAN_ANOMALY":"290.8436","MEAN_ELEMENT_THEORY":"SGP4","TIME_SYSTEM":"UTC","REF_FRAME":"TEME","ELEMENT_SET_NO":"999","INCLINATION":"53.0570","REV_AT_EPOCH":"7365","EPHEMERIS_TYPE":"0","NORAD_CAT_ID":"48358"},{"MEAN_MOTION":"15.06404107","LAUNCH_DATE":"2021-05-04","APOAPSIS":"548.197","CLASSIFICATION_TYPE":"U","OBJECT_ID":"2021-038G","OBJECT_NAME":"STARLINK-2628","PERIAPSIS":"546.205","RA_OF_ASC_NODE":"1.2066","PERIOD":"95.592","RCS_SIZE":"LARGE","TLE_LINE1":"1 48359U 21038G   22246.69628329  .00003144  00000-0  22982-3 0  9992","OBJECT_TYPE":"PAYLOAD","DECAY_DATE":null,"SITE":"AFETR","MEAN_MOTION_DDOT":"0.0000000000000","EPOCH":"2022-09-03T16:42:38.876256","CENTER_NAME":"EARTH","ARG_OF_PERICENTER":"84.3076","SEMIMAJOR_AXIS":"6925.336","MEAN_MOTION_DOT":"0.00003144","ELEMENT_SET_NO":"999","INCLINATION":"53.0556","REV_AT_EPOCH":"7364","EPHEMERIS_TYPE":"0","NORAD_CAT_ID":"48359","ECCENTRICITY":"0.00014380","COUNTRY_CODE":"US","GP_ID":"211671303","TLE_LINE2":"2 48359  53.0556   1.2066 0001438  84.3076 275.8077 15.06404107 73648","TIME_SYSTEM":"UTC","MEAN_ANOMALY":"275.8077","MEAN_ELEMENT_THEORY":"SGP4","BSTAR":"0.00022982000000","FILE":"3556957","REF_FRAME":"TEME"},{"REF_FRAME":"TEME","TIME_SYSTEM":"UTC","MEAN_ANOMALY":"274.8571","MEAN_ELEMENT_THEORY":"SGP4","FILE":"3556957","BSTAR":"0.00009810600000","COUNTRY_CODE":"US","GP_ID":"211670059","TLE_LINE2":"2 48360  53.0560   1.5273 0001196  85.2554 274.8571 15.06393702 73635","ECCENTRICITY":"0.00011960","NORAD_CAT_ID":"48360","EPHEMERIS_TYPE":"0","REV_AT_EPOCH":"7363","INCLINATION":"53.0560","ELEMENT_SET_NO":"999","ARG_OF_PERICENTER":"85.2554","SEMIMAJOR_AXIS":"6925.368","MEAN_MOTION_DOT":"0.00001180","EPOCH":"2022-09-03T15:01:48.563328","CENTER_NAME":"EARTH","OBJECT_TYPE":"PAYLOAD","DECAY_DATE":null,"SITE":"AFETR","MEAN_MOTION_DDOT":"0.0000000000000","TLE_LINE1":"1 48360U 21038H   22246.62625652  .00001180  00000-0  98106-4 0  9993","RCS_SIZE":"LARGE","PERIOD":"95.593","RA_OF_ASC_NODE":"1.5273","PERIAPSIS":"546.405","MEAN_MOTION":"15.06393702","LAUNCH_DATE":"2021-05-04","CLASSIFICATION_TYPE":"U","APOAPSIS":"548.061","OBJECT_ID":"2021-038H","OBJECT_NAME":"STARLINK-2622"}];
